ONEWEB-0331             
1 49198U 21083N   25282.52724062  .00000014  00000+0  22179-5 0  9992
2 49198  87.9231  25.2221 0001916  89.6006 270.5345 13.18687430196972
ONEWEB-0333             
1 49199U 21083P   25282.28734303 -.00000076  00000+0 -24428-3 0  9992
2 49199  87.9035  10.1178 0001707 102.1363 257.9958 13.13470395197979
ONEWEB-0334             
1 49200U 21083Q   25283.14511411  .00000102  00000+0  21844-3 0  9991
2 49200  87.9221 324.3287 0001694 128.4303 231.6982 13.20769299203785
ONEWEB-0335             
1 49201U 21083R   25282.28226240 -.00000180  00000+0 -52647-3 0  9992
2 49201  87.9034  10.1061 0001819  94.4373 265.6964 13.13469959197989
ONEWEB-0336             
1 49202U 21083S   25283.16762038  .00000231  00000+0  59789-3 0  9990
2 49202  87.9047   9.9254 0002040  89.5048 270.6315 13.13468589198092
ONEWEB-0337             
1 49203U 21083T   25283.17764188  .00000014  00000+0  38429-5 0  9999
2 49203  87.9055   9.9303 0002029  97.5798 262.5561 13.13469488198097
ONEWEB-0338             
1 49204U 21083U   25283.11988611  .00000129  00000+0  28622-3 0  9992
2 49204  87.9232 324.3346 0001884 106.0761 254.0580 13.20771958203809
ONEWEB-0339             
1 49205U 21083V   25283.18623767 -.00000156  00000+0 -46116-3 0  9998
2 49205  87.9045   9.9114 0001917 104.6888 255.4454 13.13470453198077
